LYNK TOWER 6            
1 59123U 24043AB  26068.89488777  .00011440  00000+0  40142-3 0  9996
2 59123  97.5426 204.1954 0009749 232.0253 128.0107 15.29548678111845
STARLINK-33848          
1 63705U 25087J   26068.70170383  .00032256  00000+0  10966-2 0  9995
2 63705  53.1578 219.3476 0001006  66.2696 293.8411 15.30196042 49198
